{
  "type": "FeatureCollection",
  "features": [
    {
      "type": "Feature",
      "properties": {
        "norad_id": 28051,
        "name": "IRS-P6 (RESOURCESAT-1)",
        "group": "resource",
        "lat": -49.43127589748363,
        "lon": -149.7387134743419,
        "alt_km": 777.6616204759503,
        "timestamp": "2025-12-26T04:40:05.444563+00:00",
        "meta_object_name": "IRS-P6 (RESOURCESAT-1)",
        "meta_object_id": "2003-046A",
        "meta_epoch": "2025-12-25T23:08:36.081600",
        "meta_mean_motion": 14.36080059,
        "meta_eccentricity": 0.00649527,
        "meta_inclination": 98.2158,
        "meta_ra_of_asc_node": 39.757,
        "meta_arg_of_pericenter": 141.2062,
        "meta_mean_anomaly": 338.6757,
        "meta_ephemeris_type": 0,
        "meta_classification_type": "U",
        "meta_norad_cat_id": 28051,
        "meta_element_set_no": 999,
        "meta_rev_at_epoch": 15566,
        "meta_bstar": 4.729786e-05,
        "meta_mean_motion_dot": 1e-06,
        "meta_mean_motion_ddot": 0,
        "tle_line1": "1 28051U 03046A   25359.96430650  .00000100  00000+0  47298-4 0  9990",
        "tle_line2": "2 28051  98.2158  39.7570 0064952 141.2062 338.6757 14.36080059155662"
      },
      "geometry": {
        "type": "Point",
        "coordinates": [
          -149.7387134743419,
          -49.43127589748363
        ]
      }
    },
    {
      "type": "Feature",
      "properties": {
        "norad_id": 28220,
        "name": "SHIYAN-1 (SY-1)",
        "group": "resource",
        "lat": -62.81995490792357,
        "lon": -133.1433172893396,
        "alt_km": 484.33496046249184,
        "timestamp": "2025-12-26T04:40:05.444575+00:00",
        "meta_object_name": "SHIYAN-1 (SY-1)",
        "meta_object_id": "2004-012A",
        "meta_epoch": "2025-12-25T18:10:37.216416",
        "meta_mean_motion": 15.2847773,
        "meta_eccentricity": 0.00051453,
        "meta_inclination": 97.8913,
        "meta_ra_of_asc_node": 62.0651,
        "meta_arg_of_pericenter": 270.3506,
        "meta_mean_anomaly": 89.7142,
        "meta_ephemeris_type": 0,
        "meta_classification_type": "U",
        "meta_norad_cat_id": 28220,
        "meta_element_set_no": 999,
        "meta_rev_at_epoch": 18455,
        "meta_bstar": 0.00048278307,
        "meta_mean_motion_dot": 0.00013314,
        "meta_mean_motion_ddot": 0,
        "tle_line1": "1 28220U 04012A   25359.75737519  .00013314  00000+0  48278-3 0  9992",
        "tle_line2": "2 28220  97.8913  62.0651 0005145 270.3506  89.7142 15.28477730184559"
      },
      "geometry": {
        "type": "Point",
        "coordinates": [
          -133.1433172893396,
          -62.81995490792357
        ]
      }
    },
    {
      "type": "Feature",
      "properties": {
        "norad_id": 28376,
        "name": "AURA",
        "group": "resource",
        "lat": -76.99547354000082,
        "lon": 91.16436271353535,
        "alt_km": 698.3460585852436,
        "timestamp": "2025-12-26T04:40:05.444586+00:00",
        "meta_object_name": "AURA",
        "meta_object_id": "2004-026A",
        "meta_epoch": "2025-12-25T22:33:02.817216",
        "meta_mean_motion": 14.60975957,
        "meta_eccentricity": 0.00014373,
        "meta_inclination": 98.3204,
        "meta_ra_of_asc_node": 310.2289,
        "meta_arg_of_pericenter": 90.611,
        "meta_mean_anomaly": 269.5255,
        "meta_ephemeris_type": 0,
        "meta_classification_type": "U",
        "meta_norad_cat_id": 28376,
        "meta_element_set_no": 999,
        "meta_rev_at_epoch": 14091,
        "meta_bstar": 0.00022936053,
        "meta_mean_motion_dot": 1.076e-05,
        "meta_mean_motion_ddot": 0,
        "tle_line1": "1 28376U 04026A   25359.93961594  .00001076  00000+0  22936-3 0  9996",
        "tle_line2": "2 28376  98.3204 310.2289 0001437  90.6110 269.5255 14.60975957140913"
      },
      "geometry": {
        "type": "Point",
        "coordinates": [
          91.16436271353535,
          -76.99547354000082
        ]
      }
    },
    {
      "type": "Feature",
      "properties": {
        "norad_id": 28649,
        "name": "IRS-P5 (CARTOSAT-1)",
        "group": "resource",
        "lat": 79.53912594075955,
        "lon": -108.08460731904462,
        "alt_km": 588.8908613612075,
        "timestamp": "2025-12-26T04:40:05.444597+00:00",
        "meta_object_name": "IRS-P5 (CARTOSAT-1)",
        "meta_object_id": "2005-017A",
        "meta_epoch": "2025-12-25T23:23:59.136000",
        "meta_mean_motion": 14.90447321,
        "meta_eccentricity": 4.731e-05,
        "meta_inclination": 97.5483,
        "meta_ra_of_asc_node": 25.8009,
        "meta_arg_of_pericenter": 68.407,
        "meta_mean_anomaly": 291.7199,
        "meta_ephemeris_type": 0,
        "meta_classification_type": "U",
        "meta_norad_cat_id": 28649,
        "meta_element_set_no": 999,
        "meta_rev_at_epoch": 11801,
        "meta_bstar": 0.00016502967,
        "meta_mean_motion_dot": 1.557e-05,
        "meta_mean_motion_ddot": 0,
        "tle_line1": "1 28649U 05017A   25359.97499000  .00001557  00000+0  16503-3 0  9999",
        "tle_line2": "2 28649  97.5483  25.8009 0000473  68.4070 291.7199 14.90447321118014"
      },
      "geometry": {
        "type": "Point",
        "coordinates": [
          -108.08460731904462,
          79.53912594075955
        ]
      }
    },
    {
      "type": "Feature",
      "properties": {
        "norad_id": 28893,
        "name": "SINAH 1",
        "group": "resource",
        "lat": -70.10763032479575,
        "lon": -74.88453385630976,
        "alt_km": 697.6218328148461,
        "timestamp": "2025-12-26T04:40:05.444608+00:00",
        "meta_object_name": "SINAH 1",
        "meta_object_id": "2005-043D",
        "meta_epoch": "2025-12-25T22:36:05.479776",
        "meta_mean_motion": 14.63975984,
        "meta_eccentricity": 0.00157332,
        "meta_inclination": 98.261,
        "meta_ra_of_asc_node": 128.5349,
        "meta_arg_of_pericenter": 98.5336,
        "meta_mean_anomaly": 261.765,
        "meta_ephemeris_type": 0,
        "meta_classification_type": "U",
        "meta_norad_cat_id": 28893,
        "meta_element_set_no": 999,
        "meta_rev_at_epoch": 7517,
        "meta_bstar": 9.6905896e-05,
        "meta_mean_motion_dot": 4.59e-06,
        "meta_mean_motion_ddot": 0,
        "tle_line1": "1 28893U 05043D   25359.94173009  .00000459  00000+0  96906-4 0  9990",
        "tle_line2": "2 28893  98.2610 128.5349 0015733  98.5336 261.7650 14.63975984 75176"
      },
      "geometry": {
        "type": "Point",
        "coordinates": [
          -74.88453385630976,
          -70.10763032479575
        ]
      }
    },
    {
      "type": "Feature",
      "properties": {
        "norad_id": 29079,
        "name": "EROS B",
        "group": "resource",
        "lat": 7.855440679182249,
        "lon": 116.4314834970195,
        "alt_km": 351.3806019158219,
        "timestamp": "2025-12-26T04:40:05.444619+00:00",
        "meta_object_name": "EROS B",
        "meta_object_id": "2006-014A",
        "meta_epoch": "2025-12-25T22:31:35.174784",
        "meta_mean_motion": 15.72667014,
        "meta_eccentricity": 0.0004585,
        "meta_inclination": 97.345,
        "meta_ra_of_asc_node": 117.1815,
        "meta_arg_of_pericenter": 312.3914,
        "meta_mean_anomaly": 47.6961,
        "meta_ephemeris_type": 0,
        "meta_classification_type": "U",
        "meta_norad_cat_id": 29079,
        "meta_element_set_no": 999,
        "meta_rev_at_epoch": 9287,
        "meta_bstar": 0.0014392033,
        "meta_mean_motion_dot": 0.00197211,
        "meta_mean_motion_ddot": 0,
        "tle_line1": "1 29079U 06014A   25359.93860156  .00197211  00000+0  14392-2 0  9991",
        "tle_line2": "2 29079  97.3450 117.1815 0004585 312.3914  47.6961 15.72667014 92874"
      },
      "geometry": {
        "type": "Point",
        "coordinates": [
          116.4314834970195,
          7.855440679182249
        ]
      }
    },
    {
      "type": "Feature",
      "properties": {
        "norad_id": 29228,
        "name": "RESURS-DK 1",
        "group": "resource",
        "lat": 11.601607814892215,
        "lon": 71.36948567634697,
        "alt_km": 533.0067620975833,
        "timestamp": "2025-12-26T04:40:05.444630+00:00",
        "meta_object_name": "RESURS-DK 1",
        "meta_object_id": "2006-021A",
        "meta_epoch": "2025-12-25T12:44:18.731040",
        "meta_mean_motion": 15.12230969,
        "meta_eccentricity": 0.0006922,
        "meta_inclination": 69.9336,
        "meta_ra_of_asc_node": 68.7803,
        "meta_arg_of_pericenter": 247.3291,
        "meta_mean_anomaly": 112.7143,
        "meta_ephemeris_type": 0,
        "meta_classification_type": "U",
        "meta_norad_cat_id": 29228,
        "meta_element_set_no": 999,
        "meta_rev_at_epoch": 7631,
        "meta_bstar": 0.00018237,
        "meta_mean_motion_dot": 3.053e-05,
        "meta_mean_motion_ddot": 0,
        "tle_line1": "1 29228U 06021A   25359.53077235  .00003053  00000+0  18237-3 0  9992",
        "tle_line2": "2 29228  69.9336  68.7803 0006922 247.3291 112.7143 15.12230969 76314"
      },
      "geometry": {
        "type": "Point",
        "coordinates": [
          71.36948567634697,
          11.601607814892215
        ]
      }
    }
  ]
}